ONEWEB-0020             
1 45133U 20008C   23233.44945754 -.00000280  00000+0 -83823-3 0  9999
2 45133  87.8805 240.9569 0002120  83.7896 276.3473 13.10376781174130
ONEWEB-0021             
1 45134U 20008D   23233.46380077  .00000499  00000+0  13923-2 0  9996
2 45134  87.8810 240.9555 0002000  91.8130 268.3226 13.10377047174537
ONEWEB-0022             
1 45135U 20008E   23233.10652985  .00000227  00000+0  61501-3 0  9993
2 45135  87.8802 241.0446 0002197  85.3682 274.7696 13.10374052174060
ONEWEB-0023             
1 45136U 20008F   23233.47653194  .00000659  00000+0  18520-2 0  9998
2 45136  87.8805 240.9467 0001615  76.6860 283.4448 13.10372644173842
ONEWEB-0024             
1 45137U 20008G   23233.52421810 -.00000749  00000+0 -21821-2 0  9993
2 45137  87.8716 240.9983 0001998  93.6183 266.5173 13.10376469174014
ONEWEB-0025             
1 45138U 20008H   23233.46536795  .00000547  00000+0  15292-2 0  9995
2 45138  87.8810 240.9567 0001678  97.5404 262.5914 13.10376596174337
ONEWEB-0026             
1 45139U 20008J   23233.99855861 -.00122976  00000+0 -35309+0 0  9993
2 45139  87.8911 225.6811 0002064  89.2764 270.8600 13.11136468176978
ONEWEB-0028             
1 45140U 20008K   23234.03041974  .00000116  00000+0  29260-3 0  9995
2 45140  87.8895 225.7240 0001584 101.0078 259.1228 13.11418794173603
